{
  "type": "FeatureCollection",
  "features": [
    {
      "type": "Feature",
      "properties": {
        "norad_id": 41772,
        "name": "SKYSAT-C5",
        "group": "resource",
        "lat": -41.54617591157213,
        "lon": -165.35830028168073,
        "alt_km": 466.7477273130362,
        "timestamp": "2025-12-02T19:35:50.219197+00:00",
        "meta_object_name": "SKYSAT-C5",
        "meta_object_id": "2016-058C",
        "meta_epoch": "2025-12-02T09:14:57.684768",
        "meta_mean_motion": 15.35361151,
        "meta_eccentricity": 0.0002912,
        "meta_inclination": 97.0796,
        "meta_ra_of_asc_node": 20.5505,
        "meta_arg_of_pericenter": 122.4171,
        "meta_mean_anomaly": 237.7356,
        "meta_ephemeris_type": 0,
        "meta_classification_type": "U",
        "meta_norad_cat_id": 41772,
        "meta_element_set_no": 999,
        "meta_rev_at_epoch": 51357,
        "meta_bstar": 0.0016477,
        "meta_mean_motion_dot": 0.00056871,
        "meta_mean_motion_ddot": 0,
        "tle_line1": "1 41772U 16058C   25336.38538987  .00056871  00000+0  16477-2 0  9994",
        "tle_line2": "2 41772  97.0796  20.5505 0002912 122.4171 237.7356 15.35361151513575"
      },
      "geometry": {
        "type": "Point",
        "coordinates": [
          -165.35830028168073,
          -41.54617591157213
        ]
      }
    },
    {
      "type": "Feature",
      "properties": {
        "norad_id": 41773,
        "name": "SKYSAT-C2",
        "group": "resource",
        "lat": 10.493069645842608,
        "lon": -176.92210718672752,
        "alt_km": 458.11899844447817,
        "timestamp": "2025-12-02T19:35:50.219207+00:00",
        "meta_object_name": "SKYSAT-C2",
        "meta_object_id": "2016-058D",
        "meta_epoch": "2025-12-02T07:55:30.892224",
        "meta_mean_motion": 15.36906729,
        "meta_eccentricity": 0.0005123,
        "meta_inclination": 97.0375,
        "meta_ra_of_asc_node": 1.3012,
        "meta_arg_of_pericenter": 60.3148,
        "meta_mean_anomaly": 299.8607,
        "meta_ephemeris_type": 0,
        "meta_classification_type": "U",
        "meta_norad_cat_id": 41773,
        "meta_element_set_no": 999,
        "meta_rev_at_epoch": 51476,
        "meta_bstar": 0.0003708,
        "meta_mean_motion_dot": 0.00013317,
        "meta_mean_motion_ddot": 0,
        "tle_line1": "1 41773U 16058D   25336.33021866  .00013317  00000+0  37080-3 0  9995",
        "tle_line2": "2 41773  97.0375   1.3012 0005123  60.3148 299.8607 15.36906729514767"
      },
      "geometry": {
        "type": "Point",
        "coordinates": [
          -176.92210718672752,
          10.493069645842608
        ]
      }
    },
    {
      "type": "Feature",
      "properties": {
        "norad_id": 41774,
        "name": "SKYSAT-C3",
        "group": "resource",
        "lat": 71.64131458413311,
        "lon": -147.46406546484047,
        "alt_km": 426.9235293323309,
        "timestamp": "2025-12-02T19:35:50.219218+00:00",
        "meta_object_name": "SKYSAT-C3",
        "meta_object_id": "2016-058E",
        "meta_epoch": "2025-12-02T02:01:26.634720",
        "meta_mean_motion": 15.43828804,
        "meta_eccentricity": 0.00013941,
        "meta_inclination": 96.9318,
        "meta_ra_of_asc_node": 10.3311,
        "meta_arg_of_pericenter": 98.2621,
        "meta_mean_anomaly": 261.8787,
        "meta_ephemeris_type": 0,
        "meta_classification_type": "U",
        "meta_norad_cat_id": 41774,
        "meta_element_set_no": 999,
        "meta_rev_at_epoch": 51561,
        "meta_bstar": 0.000469643,
        "meta_mean_motion_dot": 0.0002123,
        "meta_mean_motion_ddot": 0,
        "tle_line1": "1 41774U 16058E   25336.08433605  .00021230  00000+0  46964-3 0  9990",
        "tle_line2": "2 41774  96.9318  10.3311 0001394  98.2621 261.8787 15.43828804515615"
      },
      "geometry": {
        "type": "Point",
        "coordinates": [
          -147.46406546484047,
          71.64131458413311
        ]
      }
    },
    {
      "type": "Feature",
      "properties": {
        "norad_id": 41785,
        "name": "ALSAT 1B",
        "group": "resource",
        "lat": 15.11731909198808,
        "lon": -13.08269949713914,
        "alt_km": 658.5916572443066,
        "timestamp": "2025-12-02T19:35:50.219232+00:00",
        "meta_object_name": "ALSAT 1B",
        "meta_object_id": "2016-059C",
        "meta_epoch": "2025-12-02T11:22:16.585248",
        "meta_mean_motion": 14.72057979,
        "meta_eccentricity": 0.0010335,
        "meta_inclination": 97.782,
        "meta_ra_of_asc_node": 348.7065,
        "meta_arg_of_pericenter": 132.9674,
        "meta_mean_anomaly": 227.2402,
        "meta_ephemeris_type": 0,
        "meta_classification_type": "U",
        "meta_norad_cat_id": 41785,
        "meta_element_set_no": 999,
        "meta_rev_at_epoch": 49163,
        "meta_bstar": 0.00011301,
        "meta_mean_motion_dot": 6.64e-06,
        "meta_mean_motion_ddot": 0,
        "tle_line1": "1 41785U 16059C   25336.47380307  .00000664  00000+0  11301-3 0  9991",
        "tle_line2": "2 41785  97.7820 348.7065 0010335 132.9674 227.2402 14.72057979491630"
      },
      "geometry": {
        "type": "Point",
        "coordinates": [
          -13.08269949713914,
          15.11731909198808
        ]
      }
    },
    {
      "type": "Feature",
      "properties": {
        "norad_id": 41787,
        "name": "PATHFINDER 1",
        "group": "resource",
        "lat": -80.16470626810371,
        "lon": 107.6679224989139,
        "alt_km": 695.8185802149892,
        "timestamp": "2025-12-02T19:35:50.219243+00:00",
        "meta_object_name": "PATHFINDER 1",
        "meta_object_id": "2016-059E",
        "meta_epoch": "2025-12-02T11:51:11.378880",
        "meta_mean_motion": 14.67292138,
        "meta_eccentricity": 0.0029938,
        "meta_inclination": 97.814,
        "meta_ra_of_asc_node": 339.7431,
        "meta_arg_of_pericenter": 112.3196,
        "meta_mean_anomaly": 248.1187,
        "meta_ephemeris_type": 0,
        "meta_classification_type": "U",
        "meta_norad_cat_id": 41787,
        "meta_element_set_no": 999,
        "meta_rev_at_epoch": 49086,
        "meta_bstar": 0.0002009,
        "meta_mean_motion_dot": 1.094e-05,
        "meta_mean_motion_ddot": 0,
        "tle_line1": "1 41787U 16059E   25336.49388170  .00001094  00000+0  20090-3 0  9994",
        "tle_line2": "2 41787  97.8140 339.7431 0029938 112.3196 248.1187 14.67292138490863"
      },
      "geometry": {
        "type": "Point",
        "coordinates": [
          107.6679224989139,
          -80.16470626810371
        ]
      }
    },
    {
      "type": "Feature",
      "properties": {
        "norad_id": 41790,
        "name": "SCATSAT 1",
        "group": "resource",
        "lat": -22.568778117378514,
        "lon": -150.0508600872301,
        "alt_km": 609.7012777038835,
        "timestamp": "2025-12-02T19:35:50.219253+00:00",
        "meta_object_name": "SCATSAT 1",
        "meta_object_id": "2016-059H",
        "meta_epoch": "2025-12-02T04:04:18.892704",
        "meta_mean_motion": 14.78875526,
        "meta_eccentricity": 0.00557394,
        "meta_inclination": 98.1482,
        "meta_ra_of_asc_node": 32.708,
        "meta_arg_of_pericenter": 161.5626,
        "meta_mean_anomaly": 198.7622,
        "meta_ephemeris_type": 0,
        "meta_classification_type": "U",
        "meta_norad_cat_id": 41790,
        "meta_element_set_no": 999,
        "meta_rev_at_epoch": 7246,
        "meta_bstar": 0.00029277794,
        "meta_mean_motion_dot": 2.157e-05,
        "meta_mean_motion_ddot": 0,
        "tle_line1": "1 41790U 16059H   25336.16966311  .00002157  00000+0  29278-3 0  9999",
        "tle_line2": "2 41790  98.1482  32.7080 0055739 161.5626 198.7622 14.78875526 72468"
      },
      "geometry": {
        "type": "Point",
        "coordinates": [
          -150.0508600872301,
          -22.568778117378514
        ]
      }
    },
    {
      "type": "Feature",
      "properties": {
        "norad_id": 41875,
        "name": "GOKTURK 1A",
        "group": "resource",
        "lat": 36.77523986901446,
        "lon": 55.45737494695198,
        "alt_km": 681.2565451492083,
        "timestamp": "2025-12-02T19:35:50.219263+00:00",
        "meta_object_name": "GOKTURK 1A",
        "meta_object_id": "2016-073A",
        "meta_epoch": "2025-12-02T12:22:49.301760",
        "meta_mean_motion": 14.62759687,
        "meta_eccentricity": 0.0001242,
        "meta_inclination": 98.1431,
        "meta_ra_of_asc_node": 229.0173,
        "meta_arg_of_pericenter": 81.8915,
        "meta_mean_anomaly": 278.2427,
        "meta_ephemeris_type": 0,
        "meta_classification_type": "U",
        "meta_norad_cat_id": 41875,
        "meta_element_set_no": 999,
        "meta_rev_at_epoch": 48007,
        "meta_bstar": 0.00015986,
        "meta_mean_motion_dot": 7.68e-06,
        "meta_mean_motion_ddot": 0,
        "tle_line1": "1 41875U 16073A   25336.51584840  .00000768  00000+0  15986-3 0  9998",
        "tle_line2": "2 41875  98.1431 229.0173 0001242  81.8915 278.2427 14.62759687480074"
      },
      "geometry": {
        "type": "Point",
        "coordinates": [
          55.45737494695198,
          36.77523986901446
        ]
      }
    }
  ]
}